CCSDS_OMM_VERS = 2.0
CREATION_DATE  = 
ORIGINATOR     = 

OBJECT_NAME    = ISS OBJECT XY
OBJECT_ID      = 1998-067XY
CENTER_NAME    = EARTH
REF_FRAME      = TEME
TIME_SYSTEM    = UTC
MEAN_ELEMENT_THEORY = SGP/SGP4

EPOCH          = 2026-03-11T16:34:05.584224
MEAN_MOTION    = 15.64103776
ECCENTRICITY   = .0003318
INCLINATION    = 51.6275
RA_OF_ASC_NODE = 57.0144
ARG_OF_PERICENTER = 100.2978
MEAN_ANOMALY   = 259.8391

EPHEMERIS_TYPE = 0
CLASSIFICATION_TYPE = U
NORAD_CAT_ID   = 66912
ELEMENT_SET_NO = 999
REV_AT_EPOCH   = 1546
BSTAR          = .10662E-2
MEAN_MOTION_DOT = .103877E-2
MEAN_MOTION_DDOT = 0

CCSDS_OMM_VERS = 2.0
CREATION_DATE  = 
ORIGINATOR     = 

OBJECT_NAME    = KNACKSAT-2
OBJECT_ID      = 1998-067XZ
CENTER_NAME    = EARTH
REF_FRAME      = TEME
TIME_SYSTEM    = UTC
MEAN_ELEMENT_THEORY = SGP/SGP4

EPOCH          = 2026-03-11T09:38:41.834112
MEAN_MOTION    = 15.51979523
ECCENTRICITY   = .0009486
INCLINATION    = 51.6310
RA_OF_ASC_NODE = 63.3406
ARG_OF_PERICENTER = 191.9078
MEAN_ANOMALY   = 168.1689

EPHEMERIS_TYPE = 0
CLASSIFICATION_TYPE = U
NORAD_CAT_ID   = 67683
ELEMENT_SET_NO = 999
REV_AT_EPOCH   = 505
BSTAR          = .71521E-3
MEAN_MOTION_DOT = .43646E-3
MEAN_MOTION_DDOT = 0

CCSDS_OMM_VERS = 2.0
CREATION_DATE  = 
ORIGINATOR     = 

OBJECT_NAME    = GXIBA-1
OBJECT_ID      = 1998-067YA
CENTER_NAME    = EARTH
REF_FRAME      = TEME
TIME_SYSTEM    = UTC
MEAN_ELEMENT_THEORY = SGP/SGP4

EPOCH          = 2026-03-11T08:55:22.678464
MEAN_MOTION    = 15.54628792
ECCENTRICITY   = .0011196
INCLINATION    = 51.6307
RA_OF_ASC_NODE = 63.1407
ARG_OF_PERICENTER = 181.3427
MEAN_ANOMALY   = 178.7536

EPHEMERIS_TYPE = 0
CLASSIFICATION_TYPE = U
NORAD_CAT_ID   = 67684
ELEMENT_SET_NO = 999
REV_AT_EPOCH   = 505
BSTAR          = .12821E-2
MEAN_MOTION_DOT = .87117E-3
MEAN_MOTION_DDOT = 0

CCSDS_OMM_VERS = 2.0
CREATION_DATE  = 
ORIGINATOR     = 

OBJECT_NAME    = CORAL
OBJECT_ID      = 1998-067YB
CENTER_NAME    = EARTH
REF_FRAME      = TEME
TIME_SYSTEM    = UTC
MEAN_ELEMENT_THEORY = SGP/SGP4

EPOCH          = 2026-03-11T04:53:37.284864
MEAN_MOTION    = 15.52344008
ECCENTRICITY   = .0011507
INCLINATION    = 51.6308
RA_OF_ASC_NODE = 64.2697
ARG_OF_PERICENTER = 187.7901
MEAN_ANOMALY   = 172.2911

EPHEMERIS_TYPE = 0
CLASSIFICATION_TYPE = U
NORAD_CAT_ID   = 67685
ELEMENT_SET_NO = 999
REV_AT_EPOCH   = 502
BSTAR          = .81465E-3
MEAN_MOTION_DOT = .50529E-3
MEAN_MOTION_DDOT = 0

CCSDS_OMM_VERS = 2.0
CREATION_DATE  = 
ORIGINATOR     = 

OBJECT_NAME    = ISS OBJECT YC
OBJECT_ID      = 1998-067YC
CENTER_NAME    = EARTH
REF_FRAME      = TEME
TIME_SYSTEM    = UTC
MEAN_ELEMENT_THEORY = SGP/SGP4

EPOCH          = 2026-03-11T09:22:53.802336
MEAN_MOTION    = 15.52939033
ECCENTRICITY   = .0008101
INCLINATION    = 51.6314
RA_OF_ASC_NODE = 63.2696
ARG_OF_PERICENTER = 156.7781
MEAN_ANOMALY   = 203.3577

EPHEMERIS_TYPE = 0
CLASSIFICATION_TYPE = U
NORAD_CAT_ID   = 67686
ELEMENT_SET_NO = 999
REV_AT_EPOCH   = 505
BSTAR          = .96875E-3
MEAN_MOTION_DOT = .61493E-3
MEAN_MOTION_DDOT = 0

CCSDS_OMM_VERS = 2.0
CREATION_DATE  = 
ORIGINATOR     = 

OBJECT_NAME    = LEOPARD
OBJECT_ID      = 1998-067YD
CENTER_NAME    = EARTH
REF_FRAME      = TEME
TIME_SYSTEM    = UTC
MEAN_ELEMENT_THEORY = SGP/SGP4

EPOCH          = 2026-03-11T14:13:10.717824
MEAN_MOTION    = 15.52183951
ECCENTRICITY   = .0008002
INCLINATION    = 51.6321
RA_OF_ASC_NODE = 62.3663
ARG_OF_PERICENTER = 160.9346
MEAN_ANOMALY   = 199.1945

EPHEMERIS_TYPE = 0
CLASSIFICATION_TYPE = U
NORAD_CAT_ID   = 67687
ELEMENT_SET_NO = 999
REV_AT_EPOCH   = 500
BSTAR          = .76168E-3
MEAN_MOTION_DOT = .46853E-3
MEAN_MOTION_DDOT = 0

CCSDS_OMM_VERS = 2.0
CREATION_DATE  = 
ORIGINATOR     = 

OBJECT_NAME    = ISS OBJECT YE
OBJECT_ID      = 1998-067YE
CENTER_NAME    = EARTH
REF_FRAME      = TEME
TIME_SYSTEM    = UTC
MEAN_ELEMENT_THEORY = SGP/SGP4

EPOCH          = 2026-03-11T20:15:39.762144
MEAN_MOTION    = 15.52715373
ECCENTRICITY   = .0007947
INCLINATION    = 51.6314
RA_OF_ASC_NODE = 61.0480
ARG_OF_PERICENTER = 158.7007
MEAN_ANOMALY   = 201.4315

EPHEMERIS_TYPE = 0
CLASSIFICATION_TYPE = U
NORAD_CAT_ID   = 67688
ELEMENT_SET_NO = 999
REV_AT_EPOCH   = 504
BSTAR          = .7634E-3
MEAN_MOTION_DOT = .4788E-3
MEAN_MOTION_DDOT = 0

CCSDS_OMM_VERS = 2.0
CREATION_DATE  = 
ORIGINATOR     = 

OBJECT_NAME    = CREW DRAGON 12
OBJECT_ID      = 2026-031A
CENTER_NAME    = EARTH
REF_FRAME      = TEME
TIME_SYSTEM    = UTC
MEAN_ELEMENT_THEORY = SGP/SGP4

EPOCH          = 2026-03-11T20:04:34.596192
MEAN_MOTION    = 15.48586968
ECCENTRICITY   = .0007973
INCLINATION    = 51.6324
RA_OF_ASC_NODE = 61.7417
ARG_OF_PERICENTER = 182.2925
MEAN_ANOMALY   = 177.8028

EPHEMERIS_TYPE = 0
CLASSIFICATION_TYPE = U
NORAD_CAT_ID   = 67796
ELEMENT_SET_NO = 999
REV_AT_EPOCH   = 55656
BSTAR          = .16153E-3
MEAN_MOTION_DOT = .8338E-4
MEAN_MOTION_DDOT = 0

